[
    {
        "Altitude(m)": 555411.1221419291,
        "Argument of Periapsis(deg)": 0.013245982221427002,
        "Eccentricity": 0.0,
        "Inclination(deg)": 53.0,
        "Latitude(deg)": 32.13766349166823,
        "Longitude(deg)": -49.66318287070096,
        "Mean Anomaly(deg)": -221.63491426484484,
        "RAAN(deg)": 259.9802867370561,
        "Satellite Name": "Starlink Shell 1 1151",
        "Satellite Number": 1151,
        "Semi-Major Axis(m)": 6931778.249405717,
        "Time(s)": 380
    },
    {
        "Altitude(m)": 555333.9416418173,
        "Argument of Periapsis(deg)": 0.013594560700938237,
        "Eccentricity": 0.0,
        "Inclination(deg)": 53.0,
        "Latitude(deg)": 31.693073699815194,
        "Longitude(deg)": -49.182581002432144,
        "Mean Anomaly(deg)": -221.00808306128812,
        "RAAN(deg)": 259.9797679669786,
        "Satellite Name": "Starlink Shell 1 1151",
        "Satellite Number": 1151,
        "Semi-Major Axis(m)": 6931778.249405717,
        "Time(s)": 390
    },
    {
        "Altitude(m)": 555257.6180405135,
        "Argument of Periapsis(deg)": 0.013943139180449475,
        "Eccentricity": 0.0,
        "Inclination(deg)": 53.0,
        "Latitude(deg)": 31.246337581759118,
        "Longitude(deg)": -48.706939360811255,
        "Mean Anomaly(deg)": -220.3812518577314,
        "RAAN(deg)": 259.9792491969011,
        "Satellite Name": "Starlink Shell 1 1151",
        "Satellite Number": 1151,
        "Semi-Major Axis(m)": 6931778.249405717,
        "Time(s)": 400
    },
    {
        "Altitude(m)": 555182.205992195,
        "Argument of Periapsis(deg)": 0.014291717659960712,
        "Eccentricity": 0.0,
        "Inclination(deg)": 53.0,
        "Latitude(deg)": 30.79751126800712,
        "Longitude(deg)": -48.23614825000811,
        "Mean Anomaly(deg)": -219.75442065417465,
        "RAAN(deg)": 259.97873042682363,
        "Satellite Name": "Starlink Shell 1 1151",
        "Satellite Number": 1151,
        "Semi-Major Axis(m)": 6931778.249405717,
        "Time(s)": 410
    },
    {
        "Altitude(m)": 555107.7598894326,
        "Argument of Periapsis(deg)": 0.014640296139471948,
        "Eccentricity": 0.0,
        "Inclination(deg)": 53.0,
        "Latitude(deg)": 30.34664963191737,
        "Longitude(deg)": -47.77009971440377,
        "Mean Anomaly(deg)": -219.12758945061796,
        "RAAN(deg)": 259.97821165674617,
        "Satellite Name": "Starlink Shell 1 1151",
        "Satellite Number": 1151,
        "Semi-Major Axis(m)": 6931778.249405717,
        "Time(s)": 420
    },
    {
        "Altitude(m)": 555034.3338346533,
        "Argument of Periapsis(deg)": 0.014988874618983185,
        "Eccentricity": 0.0,
        "Inclination(deg)": 53.0,
        "Latitude(deg)": 29.893806322130132,
        "Longitude(deg)": -47.30868705926917,
        "Mean Anomaly(deg)": -218.50075824706124,
        "RAAN(deg)": 259.9776928866687,
        "Satellite Name": "Starlink Shell 1 1151",
        "Satellite Number": 1151,
        "Semi-Major Axis(m)": 6931778.249405717,
        "Time(s)": 430
    },
    {
        "Altitude(m)": 554961.9816116709,
        "Argument of Periapsis(deg)": 0.015337453098494424,
        "Eccentricity": 0.0,
        "Inclination(deg)": 53.0,
        "Latitude(deg)": 29.43903379472516,
        "Longitude(deg)": -46.85180436674264,
        "Mean Anomaly(deg)": -217.87392704350455,
        "RAAN(deg)": 259.97717411659124,
        "Satellite Name": "Starlink Shell 1 1151",
        "Satellite Number": 1151,
        "Semi-Major Axis(m)": 6931778.249405717,
        "Time(s)": 440
    },
    {
        "Altitude(m)": 554890.7566573324,
        "Argument of Periapsis(deg)": 0.01568603157800566,
        "Eccentricity": 0.0,
        "Inclination(deg)": 53.0,
        "Latitude(deg)": 28.9823833450597,
        "Longitude(deg)": -46.399347520318535,
        "Mean Anomaly(deg)": -217.24709583994783,
        "RAAN(deg)": 259.9766553465137,
        "Satellite Name": "Starlink Shell 1 1151",
        "Satellite Number": 1151,
        "Semi-Major Axis(m)": 6931778.249405717,
        "Time(s)": 450
    },
    {
        "Altitude(m)": 554820.712033313,
        "Argument of Periapsis(deg)": 0.0160346100575169,
        "Eccentricity": 0.0,
        "Inclination(deg)": 53.0,
        "Latitude(deg)": 28.523905139250687,
        "Longitude(deg)": -45.95121371242562,
        "Mean Anomaly(deg)": -216.62026463639106,
        "RAAN(deg)": 259.97613657643626,
        "Satellite Name": "Starlink Shell 1 1151",
        "Satellite Number": 1151,
        "Semi-Major Axis(m)": 6931778.249405717,
        "Time(s)": 460
    },
    {
        "Altitude(m)": 554751.9003980203,
        "Argument of Periapsis(deg)": 0.016383188537028134,
        "Eccentricity": 0.0,
        "Inclination(deg)": 53.0,
        "Latitude(deg)": 28.063648245267892,
        "Longitude(deg)": -45.50730094827407,
        "Mean Anomaly(deg)": -215.99343343283434,
        "RAAN(deg)": 259.9756178063588,
        "Satellite Name": "Starlink Shell 1 1151",
        "Satellite Number": 1151,
        "Semi-Major Axis(m)": 6931778.249405717,
        "Time(s)": 470
    },
    {
        "Altitude(m)": 554684.3739786928,
        "Argument of Periapsis(deg)": 0.01673176701653937,
        "Eccentricity": 0.0,
        "Inclination(deg)": 53.0,
        "Latitude(deg)": 27.601660663604594,
        "Longitude(deg)": -45.067509059127744,
        "Mean Anomaly(deg)": -215.36660222927767,
        "RAAN(deg)": 259.97509903628134,
        "Satellite Name": "Starlink Shell 1 1151",
        "Satellite Number": 1151,
        "Semi-Major Axis(m)": 6931778.249405717,
        "Time(s)": 480
    },
    {
        "Altitude(m)": 554618.1845436385,
        "Argument of Periapsis(deg)": 0.017080345496050607,
        "Eccentricity": 0.0,
        "Inclination(deg)": 53.0,
        "Latitude(deg)": 27.137989357506466,
        "Longitude(deg)": -44.63173919952947,
        "Mean Anomaly(deg)": -214.73977102572096,
        "RAAN(deg)": 259.9745802662038,
        "Satellite Name": "Starlink Shell 1 1151",
        "Satellite Number": 1151,
        "Semi-Major Axis(m)": 6931778.249405717,
        "Time(s)": 490
    },
    {
        "Altitude(m)": 554553.3833746661,
        "Argument of Periapsis(deg)": 0.017428923975561842,
        "Eccentricity": 0.0,
        "Inclination(deg)": 53.0,
        "Latitude(deg)": 26.67268028273418,
        "Longitude(deg)": -44.199893341605105,
        "Mean Anomaly(deg)": -214.11293982216424,
        "RAAN(deg)": 259.97406149612635,
        "Satellite Name": "Starlink Shell 1 1151",
        "Satellite Number": 1151,
        "Semi-Major Axis(m)": 6931778.249405717,
        "Time(s)": 500
    },
    {
        "Altitude(m)": 554490.0212397266,
        "Argument of Periapsis(deg)": 0.01777750245507308,
        "Eccentricity": 0.0,
        "Inclination(deg)": 53.0,
        "Latitude(deg)": 26.20577841684107,
        "Longitude(deg)": -43.77187527955601,
        "Mean Anomaly(deg)": -213.4861086186075,
        "RAAN(deg)": 259.97354272604895,
        "Satellite Name": "Starlink Shell 1 1151",
        "Satellite Number": 1151,
        "Semi-Major Axis(m)": 6931778.249405717,
        "Time(s)": 510
    },
    {
        "Altitude(m)": 554428.1483657683,
        "Argument of Periapsis(deg)": 0.018126080934584315,
        "Eccentricity": 0.0,
        "Inclination(deg)": 53.0,
        "Latitude(deg)": 25.737327787954516,
        "Longitude(deg)": -43.34759011881869,
        "Mean Anomaly(deg)": -212.8592774150508,
        "RAAN(deg)": 259.9730239559714,
        "Satellite Name": "Starlink Shell 1 1151",
        "Satellite Number": 1151,
        "Semi-Major Axis(m)": 6931778.249405717,
        "Time(s)": 520
    },
    {
        "Altitude(m)": 554367.8144117893,
        "Argument of Periapsis(deg)": 0.018474659414095554,
        "Eccentricity": 0.0,
        "Inclination(deg)": 53.0,
        "Latitude(deg)": 25.2673715030477,
        "Longitude(deg)": -42.926943762973224,
        "Mean Anomaly(deg)": -212.23244621149408,
        "RAAN(deg)": 259.97250518589397,
        "Satellite Name": "Starlink Shell 1 1151",
        "Satellite Number": 1151,
        "Semi-Major Axis(m)": 6931778.249405717,
        "Time(s)": 530
    },
    {
        "Altitude(m)": 554309.0684421727,
        "Argument of Periapsis(deg)": 0.018823237893606792,
        "Eccentricity": 0.0,
        "Inclination(deg)": 53.0,
        "Latitude(deg)": 24.795951775691876,
        "Longitude(deg)": -42.509843911467826,
        "Mean Anomaly(deg)": -211.6056150079374,
        "RAAN(deg)": 259.97198641581645,
        "Satellite Name": "Starlink Shell 1 1151",
        "Satellite Number": 1151,
        "Semi-Major Axis(m)": 6931778.249405717,
        "Time(s)": 540
    },
    {
        "Altitude(m)": 554251.9589002656,
        "Argument of Periapsis(deg)": 0.019171816373118027,
        "Eccentricity": 0.0,
        "Inclination(deg)": 53.0,
        "Latitude(deg)": 24.32310995328484,
        "Longitude(deg)": -42.096199542595905,
        "Mean Anomaly(deg)": -210.97878380438067,
        "RAAN(deg)": 259.971467645739,
        "Satellite Name": "Starlink Shell 1 1151",
        "Satellite Number": 1151,
        "Semi-Major Axis(m)": 6931778.249405717,
        "Time(s)": 550
    },
    {
        "Altitude(m)": 554196.5335821973,
        "Argument of Periapsis(deg)": 0.019520394852629266,
        "Eccentricity": 0.0,
        "Inclination(deg)": 53.0,
        "Latitude(deg)": 23.848886543751288,
        "Longitude(deg)": -41.685920394769575,
        "Mean Anomaly(deg)": -210.3519526008239,
        "RAAN(deg)": 259.9709488756616,
        "Satellite Name": "Starlink Shell 1 1151",
        "Satellite Number": 1151,
        "Semi-Major Axis(m)": 6931778.249405717,
        "Time(s)": 560
    }
]